{
  "type": "FeatureCollection",
  "features": [
    {
      "type": "Feature",
      "properties": {
        "norad_id": 43823,
        "name": "GEO-KOMPSAT-2A",
        "group": "weather",
        "lat": -0.025083519564427052,
        "lon": 24.314295579005233,
        "alt_km": 35786.10378494448,
        "timestamp": "2025-12-12T11:38:31.059353+00:00",
        "meta_object_name": "GEO-KOMPSAT-2A",
        "meta_object_id": "2018-100A",
        "meta_epoch": "2025-12-12T00:23:29.578848",
        "meta_mean_motion": 1.00274151,
        "meta_eccentricity": 4.24e-05,
        "meta_inclination": 0.043,
        "meta_ra_of_asc_node": 144.5078,
        "meta_arg_of_pericenter": 350.0499,
        "meta_mean_anomaly": 80.5448,
        "meta_ephemeris_type": 0,
        "meta_classification_type": "U",
        "meta_norad_cat_id": 43823,
        "meta_element_set_no": 999,
        "meta_rev_at_epoch": 2575,
        "meta_bstar": 0,
        "meta_mean_motion_dot": -3.34e-06,
        "meta_mean_motion_ddot": 0,
        "tle_line1": "1 43823U 18100A   25346.01631457 -.00000334  00000+0  00000+0 0  9996",
        "tle_line2": "2 43823   0.0430 144.5078 0000424 350.0499  80.5448  1.00274151 25757"
      },
      "geometry": {
        "type": "Point",
        "coordinates": [
          24.314295579005233,
          -0.025083519564427052
        ]
      }
    },
    {
      "type": "Feature",
      "properties": {
        "norad_id": 44387,
        "name": "METEOR-M2 2",
        "group": "weather",
        "lat": 29.522258601624404,
        "lon": 151.29988332832377,
        "alt_km": 808.48938548755,
        "timestamp": "2025-12-12T11:38:31.059365+00:00",
        "meta_object_name": "METEOR-M2 2",
        "meta_object_id": "2019-038A",
        "meta_epoch": "2025-12-12T04:11:46.076640",
        "meta_mean_motion": 14.24290481,
        "meta_eccentricity": 0.0001218,
        "meta_inclination": 98.8975,
        "meta_ra_of_asc_node": 325.8965,
        "meta_arg_of_pericenter": 148.3756,
        "meta_mean_anomaly": 211.7496,
        "meta_ephemeris_type": 0,
        "meta_classification_type": "U",
        "meta_norad_cat_id": 44387,
        "meta_element_set_no": 999,
        "meta_rev_at_epoch": 33467,
        "meta_bstar": 5.6017e-05,
        "meta_mean_motion_dot": 8.4e-07,
        "meta_mean_motion_ddot": 0,
        "tle_line1": "1 44387U 19038A   25346.17483885  .00000084  00000+0  56017-4 0  9995",
        "tle_line2": "2 44387  98.8975 325.8965 0001218 148.3756 211.7496 14.24290481334676"
      },
      "geometry": {
        "type": "Point",
        "coordinates": [
          151.29988332832377,
          29.522258601624404
        ]
      }
    },
    {
      "type": "Feature",
      "properties": {
        "norad_id": 47719,
        "name": "ARKTIKA-M 1",
        "group": "weather",
        "lat": 41.41537665708774,
        "lon": -122.41362975869752,
        "alt_km": 20626.47752206009,
        "timestamp": "2025-12-12T11:38:31.059382+00:00",
        "meta_object_name": "ARKTIKA-M 1",
        "meta_object_id": "2021-016A",
        "meta_epoch": "2025-12-09T14:03:23.859648",
        "meta_mean_motion": 2.00631311,
        "meta_eccentricity": 0.7202538,
        "meta_inclination": 63.1769,
        "meta_ra_of_asc_node": 84.4506,
        "meta_arg_of_pericenter": 269.1116,
        "meta_mean_anomaly": 15.6235,
        "meta_ephemeris_type": 0,
        "meta_classification_type": "U",
        "meta_norad_cat_id": 47719,
        "meta_element_set_no": 999,
        "meta_rev_at_epoch": 3498,
        "meta_bstar": 0,
        "meta_mean_motion_dot": -6.1e-07,
        "meta_mean_motion_ddot": 0,
        "tle_line1": "1 47719U 21016A   25343.58569282 -.00000061  00000+0  00000+0 0  9996",
        "tle_line2": "2 47719  63.1769  84.4506 7202538 269.1116  15.6235  2.00631311 34985"
      },
      "geometry": {
        "type": "Point",
        "coordinates": [
          -122.41362975869752,
          41.41537665708774
        ]
      }
    },
    {
      "type": "Feature",
      "properties": {
        "norad_id": 49008,
        "name": "FENGYUN 3E",
        "group": "weather",
        "lat": 65.14215374380355,
        "lon": -173.57946087860526,
        "alt_km": 819.7527150810993,
        "timestamp": "2025-12-12T11:38:31.059395+00:00",
        "meta_object_name": "FENGYUN 3E",
        "meta_object_id": "2021-062A",
        "meta_epoch": "2025-12-12T06:02:11.118912",
        "meta_mean_motion": 14.19879899,
        "meta_eccentricity": 5.72e-05,
        "meta_inclination": 98.7479,
        "meta_ra_of_asc_node": 346.7782,
        "meta_arg_of_pericenter": 271.7514,
        "meta_mean_anomaly": 88.3597,
        "meta_ephemeris_type": 0,
        "meta_classification_type": "U",
        "meta_norad_cat_id": 49008,
        "meta_element_set_no": 999,
        "meta_rev_at_epoch": 23005,
        "meta_bstar": 2.6545e-05,
        "meta_mean_motion_dot": 1.2e-07,
        "meta_mean_motion_ddot": 0,
        "tle_line1": "1 49008U 21062A   25346.25151758  .00000012  00000+0  26545-4 0  9994",
        "tle_line2": "2 49008  98.7479 346.7782 0000572 271.7514  88.3597 14.19879899230050"
      },
      "geometry": {
        "type": "Point",
        "coordinates": [
          -173.57946087860526,
          65.14215374380355
        ]
      }
    },
    {
      "type": "Feature",
      "properties": {
        "norad_id": 51850,
        "name": "GOES 18",
        "group": "weather",
        "lat": -0.0009683470648471555,
        "lon": 119.05744841116066,
        "alt_km": 35788.671911302874,
        "timestamp": "2025-12-12T11:38:31.059407+00:00",
        "meta_object_name": "GOES 18",
        "meta_object_id": "2022-021A",
        "meta_epoch": "2025-12-12T04:10:38.587008",
        "meta_mean_motion": 1.00272445,
        "meta_eccentricity": 6.84e-05,
        "meta_inclination": 0.0029,
        "meta_ra_of_asc_node": 82.1542,
        "meta_arg_of_pericenter": 230.2929,
        "meta_mean_anomaly": 54.3383,
        "meta_ephemeris_type": 0,
        "meta_classification_type": "U",
        "meta_norad_cat_id": 51850,
        "meta_element_set_no": 999,
        "meta_rev_at_epoch": 471,
        "meta_bstar": 0,
        "meta_mean_motion_dot": 1.06e-06,
        "meta_mean_motion_ddot": 0,
        "tle_line1": "1 51850U 22021A   25346.17405772  .00000106  00000+0  00000+0 0  9994",
        "tle_line2": "2 51850   0.0029  82.1542 0000684 230.2929  54.3383  1.00272445  4712"
      },
      "geometry": {
        "type": "Point",
        "coordinates": [
          119.05744841116066,
          -0.0009683470648471555
        ]
      }
    },
    {
      "type": "Feature",
      "properties": {
        "norad_id": 54234,
        "name": "NOAA 21 (JPSS-2)",
        "group": "weather",
        "lat": 58.74274870003475,
        "lon": 117.48814992166444,
        "alt_km": 821.0177946850108,
        "timestamp": "2025-12-12T11:38:31.059418+00:00",
        "meta_object_name": "NOAA 21 (JPSS-2)",
        "meta_object_id": "2022-150A",
        "meta_epoch": "2025-12-12T02:37:12.662976",
        "meta_mean_motion": 14.19524032,
        "meta_eccentricity": 0.0002244,
        "meta_inclination": 98.7461,
        "meta_ra_of_asc_node": 282.4253,
        "meta_arg_of_pericenter": 39.3962,
        "meta_mean_anomaly": 320.7377,
        "meta_ephemeris_type": 0,
        "meta_classification_type": "U",
        "meta_norad_cat_id": 54234,
        "meta_element_set_no": 999,
        "meta_rev_at_epoch": 16000,
        "meta_bstar": 0.00010171,
        "meta_mean_motion_dot": 1.7e-06,
        "meta_mean_motion_ddot": 0,
        "tle_line1": "1 54234U 22150A   25346.10917434  .00000170  00000+0  10171-3 0  9997",
        "tle_line2": "2 54234  98.7461 282.4253 0002244  39.3962 320.7377 14.19524032160002"
      },
      "geometry": {
        "type": "Point",
        "coordinates": [
          117.48814992166444,
          58.74274870003475
        ]
      }
    },
    {
      "type": "Feature",
      "properties": {
        "norad_id": 54743,
        "name": "METEOSAT-12 (MTG-I1)",
        "group": "weather",
        "lat": -0.5610681282860249,
        "lon": -104.19996631651496,
        "alt_km": 35779.576463039724,
        "timestamp": "2025-12-12T11:38:31.059432+00:00",
        "meta_object_name": "METEOSAT-12 (MTG-I1)",
        "meta_object_id": "2022-170C",
        "meta_epoch": "2025-12-12T03:12:23.587776",
        "meta_mean_motion": 1.00268849,
        "meta_eccentricity": 0.0001751,
        "meta_inclination": 0.6862,
        "meta_ra_of_asc_node": 23.5037,
        "meta_arg_of_pericenter": 236.924,
        "meta_mean_anomaly": 228.5072,
        "meta_ephemeris_type": 0,
        "meta_classification_type": "U",
        "meta_norad_cat_id": 54743,
        "meta_element_set_no": 999,
        "meta_rev_at_epoch": 1110,
        "meta_bstar": 0,
        "meta_mean_motion_dot": 2e-08,
        "meta_mean_motion_ddot": 0,
        "tle_line1": "1 54743U 22170C   25346.13360634  .00000002  00000+0  00000+0 0  9991",
        "tle_line2": "2 54743   0.6862  23.5037 0001751 236.9240 228.5072  1.00268849 11104"
      },
      "geometry": {
        "type": "Point",
        "coordinates": [
          -104.19996631651496,
          -0.5610681282860249
        ]
      }
    }
  ]
}